OBJECT_NAME,OBJECT_ID,EPOCH,MEAN_MOTION,ECCENTRICITY,INCLINATION,RA_OF_ASC_NODE,ARG_OF_PERICENTER,MEAN_ANOMALY,EPHEMERIS_TYPE,CLASSIFICATION_TYPE,NORAD_CAT_ID,ELEMENT_SET_NO,REV_AT_EPOCH,BSTAR,MEAN_MOTION_DOT,MEAN_MOTION_DDOT
ONEWEB-0054,2020-008AD,2026-06-16T03:59:40.409088,13.10372073,.0001875,87.8841,36.4704,82.8657,277.2683,0,U,45158,999,30789,.20204E-2,.718E-5,0
ONEWEB-0056,2020-008AE,2026-06-16T03:18:50.061024,13.10377927,.000201,87.8842,36.4701,89.1572,270.9786,0,U,45159,999,30804,-.74206E-3,-.246E-5,0
ONEWEB-0057,2020-008AF,2026-06-16T03:43:08.195808,13.10374626,.0002143,87.8839,36.4788,71.1653,288.9706,0,U,45160,999,30821,.13986E-2,.501E-5,0
ONEWEB-0058,2020-008AG,2026-06-16T03:23:59.885376,13.10375617,.0001567,87.8832,36.4877,83.1506,276.9800,0,U,45161,999,30828,-.45993E-3,-.148E-5,0
ONEWEB-0059,2020-008AH,2026-06-16T03:19:12.611424,13.10377884,.0001681,87.8835,36.4873,76.8210,283.3105,0,U,45162,999,30818,-.21227E-3,-.61E-6,0
ONEWEB-0062,2020-008AJ,2026-06-16T03:52:18.369408,13.10373439,.0001482,87.8839,36.4698,92.9053,267.2244,0,U,45163,999,30805,.19485E-2,.693E-5,0
ONEWEB-0065,2020-008AK,2026-06-16T04:40:05.234592,13.10367298,.0002084,87.8828,36.4704,80.3885,279.7478,0,U,45164,999,30775,-.29954E-2,-.1033E-4,0
ONEWEB-0066,2020-020A,2026-06-16T03:42:56.761632,13.11414962,.000169,87.8886,21.2765,81.1994,278.9325,0,U,45424,999,30254,-.14808E-2,-.512E-5,0
ONEWEB-0067,2020-020B,2026-06-16T00:57:47.986272,13.11424570,.000195,87.8909,21.2213,81.6249,278.5100,0,U,45425,999,30258,.15074E-2,.547E-5,0
ONEWEB-0080,2020-020C,2026-06-16T00:57:09.032832,13.11418138,.000158,87.8899,21.2959,92.7196,267.4113,0,U,45426,999,30255,.15094E-2,.548E-5,0
ONEWEB-0090,2020-020D,2026-06-16T03:28:30.492768,13.11413800,.000176,87.8894,21.2793,87.2821,272.8509,0,U,45427,999,30253,-.45969E-3,-.15E-5,0
ONEWEB-0061,2020-020E,2026-06-16T02:24:37.387008,13.11419483,.0001744,87.8893,21.2730,84.7953,275.3374,0,U,45428,999,30248,-.31424E-3,-.99E-6,0
ONEWEB-0081,2020-020F,2026-06-16T03:47:49.694784,13.11415334,.0001796,87.8890,21.2718,78.6044,281.5286,0,U,45429,999,30260,-.14212E-2,-.491E-5,0
ONEWEB-0069,2020-020G,2026-06-16T02:00:35.758080,13.11415213,.0001868,87.8893,21.2891,82.1623,277.9717,0,U,45430,999,30252,-.11003E-2,-.377E-5,0
ONEWEB-0031,2020-020H,2026-06-16T01:01:50.022048,13.11417819,.0001714,87.8883,21.3029,90.2890,269.8434,0,U,45431,999,30250,.15743E-2,.571E-5,0
ONEWEB-0027,2020-020J,2026-06-16T06:00:02.000160,13.17654010,.0001968,87.9138,6.0515,104.8509,141.5893,0,U,45432,999,512,-.76726E-1,-.29683E-3,0
ONEWEB-0064,2020-020K,2026-06-16T00:59:23.800416,13.11416994,.0001787,87.8890,21.2948,91.6519,268.4813,0,U,45433,999,30253,.15073E-2,.547E-5,0
ONEWEB-0018,2020-020L,2026-06-16T03:35:26.708352,13.11417121,.000145,87.8887,21.2726,77.7161,282.4129,0,U,45434,999,30249,-.98926E-3,-.338E-5,0
ONEWEB-0083,2020-020M,2026-06-16T03:21:11.935008,13.11415058,.0001715,87.8893,21.2683,86.2444,273.8880,0,U,45435,999,30253,.23474E-3,.96E-6,0
ONEWEB-0095,2020-020N,2026-06-16T03:09:00.097632,13.11420138,.0002453,87.8894,21.2786,93.5563,266.5845,0,U,45436,999,30253,.113E-2,.413E-5,0
ONEWEB-0092,2020-020P,2026-06-16T03:52:43.019328,13.11422528,.0002144,87.8893,21.2642,84.5905,275.5467,0,U,45437,999,30265,-.14234E-2,-.492E-5,0
ONEWEB-0085,2020-020Q,2026-06-16T03:20:47.878656,13.11413950,.0001789,87.8888,21.2752,85.5248,274.6084,0,U,45438,999,30253,.314E-3,.124E-5,0
ONEWEB-0096,2020-020R,2026-06-16T03:23:25.905120,13.11420741,.0001863,87.8894,21.2707,87.7900,272.3442,0,U,45439,999,30252,.71274E-4,.38E-6,0
ONEWEB-0037,2020-020S,2026-06-16T02:22:06.268224,13.11914349,.0001885,87.8907,21.2528,85.7293,274.4051,0,U,45440,999,30255,-.41349E-3,-.135E-5,0
ONEWEB-0042,2020-020T,2026-06-16T03:08:35.928096,13.11414524,.000182,87.8894,21.2690,82.2877,277.8457,0,U,45441,999,30252,.1039E-2,.381E-5,0
ONEWEB-0098,2020-020U,2026-06-15T23:22:57.518976,13.11416371,.0001737,87.8891,21.3097,86.4203,273.7123,0,U,45442,999,30248,.13111E-2,.477E-5,0
ONEWEB-0055,2020-020V,2026-06-16T00:42:07.127424,13.11419028,.0001754,87.8895,21.2975,87.3558,272.7771,0,U,45443,999,30246,.47368E-3,.181E-5,0
ONEWEB-0093,2020-020W,2026-06-16T03:52:54.490656,13.11415913,.0001923,87.8894,21.2640,73.0521,287.0818,0,U,45444,999,30254,-.13694E-2,-.473E-5,0
ONEWEB-0029,2020-020X,2026-06-16T00:52:14.998080,13.11421094,.0001726,87.8885,21.2983,76.8542,283.2778,0,U,45445,999,30250,.11932E-2,.436E-5,0
ONEWEB-0068,2020-020Y,2026-06-16T03:52:31.255968,13.11416571,.0001734,87.8896,21.2680,78.5843,281.5480,0,U,45446,999,30246,-.18888E-2,-.657E-5,0
ONEWEB-0046,2020-020Z,2026-06-16T03:40:30.433728,13.11414347,.0001993,87.8887,21.2754,79.2222,280.9130,0,U,45447,999,30247,-.13404E-2,-.462E-5,0
