ONEWEB-0054             
1 45158U 20008AD  26167.16643992  .00000718  00000+0  20204-2 0  9990
2 45158  87.8841  36.4704 0001875  82.8657 277.2683 13.10372073307891
ONEWEB-0056             
1 45159U 20008AE  26167.13807941 -.00000246  00000+0 -74206-3 0  9994
2 45159  87.8842  36.4701 0002010  89.1572 270.9786 13.10377927308043
ONEWEB-0057             
1 45160U 20008AF  26167.15495597  .00000501  00000+0  13986-2 0  9997
2 45160  87.8839  36.4788 0002143  71.1653 288.9706 13.10374626308217
ONEWEB-0058             
1 45161U 20008AG  26167.14166534 -.00000148  00000+0 -45993-3 0  9996
2 45161  87.8832  36.4877 0001567  83.1506 276.9800 13.10375617308289
ONEWEB-0059             
1 45162U 20008AH  26167.13834041 -.00000061  00000+0 -21227-3 0  9999
2 45162  87.8835  36.4873 0001681  76.8210 283.3105 13.10377884308184
ONEWEB-0062             
1 45163U 20008AJ  26167.16132372  .00000693  00000+0  19485-2 0  9992
2 45163  87.8839  36.4698 0001482  92.9053 267.2244 13.10373439308050
ONEWEB-0065             
1 45164U 20008AK  26167.19450503 -.00001033  00000+0 -29954-2 0  9998
2 45164  87.8828  36.4704 0002084  80.3885 279.7478 13.10367298307759
ONEWEB-0066             
1 45424U 20020A   26167.15482363 -.00000512  00000+0 -14808-2 0  9999
2 45424  87.8886  21.2765 0001690  81.1994 278.9325 13.11414962302549
ONEWEB-0067             
1 45425U 20020B   26167.04013873  .00000547  00000+0  15074-2 0  9996
2 45425  87.8909  21.2213 0001950  81.6249 278.5100 13.11424570302588
ONEWEB-0080             
1 45426U 20020C   26167.03968788  .00000548  00000+0  15094-2 0  9993
2 45426  87.8899  21.2959 0001580  92.7196 267.4113 13.11418138302558
ONEWEB-0090             
1 45427U 20020D   26167.14479737 -.00000150  00000+0 -45969-3 0  9993
2 45427  87.8894  21.2793 0001760  87.2821 272.8509 13.11413800302532
ONEWEB-0061             
1 45428U 20020E   26167.10043272 -.00000099  00000+0 -31424-3 0  9994
2 45428  87.8893  21.2730 0001744  84.7953 275.3374 13.11419483302488
ONEWEB-0081             
1 45429U 20020F   26167.15821406 -.00000491  00000+0 -14212-2 0  9994
2 45429  87.8890  21.2718 0001796  78.6044 281.5286 13.11415334302608
ONEWEB-0069             
1 45430U 20020G   26167.08374720 -.00000377  00000+0 -11003-2 0  9998
2 45430  87.8893  21.2891 0001868  82.1623 277.9717 13.11415213302523
ONEWEB-0031             
1 45431U 20020H   26167.04294007  .00000571  00000+0  15743-2 0  9993
2 45431  87.8883  21.3029 0001714  90.2890 269.8434 13.11417819302501
ONEWEB-0027             
1 45432U 20020J   26167.25002315 -.00029683  00000+0 -76726-1 0  9990
2 45432  87.9138   6.0515 0001968 104.8509 141.5893 13.17654010  5121
ONEWEB-0064             
1 45433U 20020K   26167.04124769  .00000547  00000+0  15073-2 0  9991
2 45433  87.8890  21.2948 0001787  91.6519 268.4813 13.11416994302535
ONEWEB-0018             
1 45434U 20020L   26167.14961468 -.00000338  00000+0 -98926-3 0  9997
2 45434  87.8887  21.2726 0001450  77.7161 282.4129 13.11417121302495
ONEWEB-0083             
1 45435U 20020M   26167.13972147  .00000096  00000+0  23474-3 0  9998
2 45435  87.8893  21.2683 0001715  86.2444 273.8880 13.11415058302538
ONEWEB-0095             
1 45436U 20020N   26167.13125113  .00000413  00000+0  11300-2 0  9999
2 45436  87.8894  21.2786 0002453  93.5563 266.5845 13.11420138302532
ONEWEB-0092             
1 45437U 20020P   26167.16160902 -.00000492  00000+0 -14234-2 0  9996
2 45437  87.8893  21.2642 0002144  84.5905 275.5467 13.11422528302658
ONEWEB-0085             
1 45438U 20020Q   26167.13944304  .00000124  00000+0  31400-3 0  9995
2 45438  87.8888  21.2752 0001789  85.5248 274.6084 13.11413950302531
ONEWEB-0096             
1 45439U 20020R   26167.14127205  .00000038  00000+0  71274-4 0  9998
2 45439  87.8894  21.2707 0001863  87.7900 272.3442 13.11420741302529
ONEWEB-0037             
1 45440U 20020S   26167.09868366 -.00000135  00000+0 -41349-3 0  9993
2 45440  87.8907  21.2528 0001885  85.7293 274.4051 13.11914349302558
ONEWEB-0042             
1 45441U 20020T   26167.13097139  .00000381  00000+0  10390-2 0  9993
2 45441  87.8894  21.2690 0001820  82.2877 277.8457 13.11414524302527
ONEWEB-0098             
1 45442U 20020U   26166.97427684  .00000477  00000+0  13111-2 0  9997
2 45442  87.8891  21.3097 0001737  86.4203 273.7123 13.11416371302485
ONEWEB-0055             
1 45443U 20020V   26167.02924916  .00000181  00000+0  47368-3 0  9999
2 45443  87.8895  21.2975 0001754  87.3558 272.7771 13.11419028302464
ONEWEB-0093             
1 45444U 20020W   26167.16174179 -.00000473  00000+0 -13694-2 0  9993
2 45444  87.8894  21.2640 0001923  73.0521 287.0818 13.11415913302542
ONEWEB-0029             
1 45445U 20020X   26167.03628470  .00000436  00000+0  11932-2 0  9998
2 45445  87.8885  21.2983 0001726  76.8542 283.2778 13.11421094302504
ONEWEB-0068             
1 45446U 20020Y   26167.16147287 -.00000657  00000+0 -18888-2 0  9999
2 45446  87.8896  21.2680 0001734  78.5843 281.5480 13.11416571302463
ONEWEB-0046             
1 45447U 20020Z   26167.15313002 -.00000462  00000+0 -13404-2 0  9992
2 45447  87.8887  21.2754 0001993  79.2222 280.9130 13.11414347302477
